0 BREEZE-M DEB
1 38565U 08011L   13272.24533991  .00000003  00000-0 -25619-3 0  2126
2 38565 048.8270 158.3457 6552935 273.3247 334.9964 03.09761977 40038
0 BREEZE-M DEB
1 38565U 08011L   13278.63683725  .00000339  00000-0  66598-3 0  2139
2 38565 048.8298 155.9208 6552909 275.4455 262.4986 03.09758008 40232
0 BREEZE-M DEB
1 38565U 08011L   13286.07078935 -.00000002  00000-0 -35740-3 0  2142
2 38565 048.8335 153.0992 6552936 277.9150 272.3961 03.09765083 40461
